COSMOS 2425 (716)       
1 29670U 06062A   17320.58201475 -.00000042  00000-0  10000-3 0  9994
2 29670  65.3865 299.7198 0021451 338.0435  68.8638  2.13104967 84782
COSMOS 2426 (717)       
1 29671U 06062B   17320.47663973 -.00000041  00000-0  10000-3 0  9997
2 29671  65.4047 299.8170 0017690 174.2043   9.0938  2.13103052 84786
COSMOS 2433 (720)       
1 32275U 07052A   17320.88428203 -.00000068  00000-0  10000-3 0  9990
2 32275  65.5861  60.4934 0002587 227.0803 243.5838  2.13104770 78308
COSMOS 2432 (719)       
1 32276U 07052B   17320.71578179 -.00000068  00000-0  10000-3 0  9991
2 32276  65.5988  60.5739 0009674 334.8274 319.0759  2.13103906 78295
COSMOS 2434 (721)       
1 32393U 07065A   17321.45100069 -.00000044  00000-0  00000+0 0  9995
2 32393  65.0021 298.7660 0002277 153.9965 280.2927  2.13102887 77028
COSMOS 2436 (723)       
1 32395U 07065C   17320.60224297 -.00000043  00000-0  10000-3 0  9997
2 32395  65.0116 298.8445 0014599 349.2734 203.3293  2.13104304 76938
COSMOS 2456 (730)       
1 36111U 09070A   17321.29391017  .00000082  00000-0  00000+0 0  9993
2 36111  64.1797 178.3432 0003470 336.5076 148.9069  2.13102990 61685
COSMOS 2457 (733)       
1 36112U 09070B   17321.18724043  .00000082  00000-0  00000+0 0  9991
2 36112  64.1609 178.2624 0006596 153.6635  17.7948  2.13101738 61689
COSMOS 2458 (734)       
1 36113U 09070C   17320.50321279  .00000082  00000-0  10000-3 0  9996
2 36113  64.1654 178.2960 0002501  45.3460   9.4454  2.13101924 61674
COSMOS 2459 (731)       
1 36400U 10007A   17320.79434609 -.00000069  00000-0  10000-3 0  9996
2 36400  65.4943  59.5843 0025633 353.2602 269.1707  2.13102147 60021
COSMOS 2461 (735)       
1 36401U 10007B   17321.16110493 -.00000067  00000-0  10000-3 0  9999
2 36401  65.4878  59.5485 0006854  80.5674  13.8377  2.13102075 60032
COSMOS 2460 (732)       
1 36402U 10007C   17320.51924332 -.00000070  00000-0  10000-3 0  9997
2 36402  65.4786  59.5416 0001431 145.4820 217.5164  2.13101727 60024
COSMOS 2464 (736)       
1 37139U 10041C   17321.34386402 -.00000045  00000-0  00000+0 0  9992
2 37139  64.6061 298.6815 0022361   5.6132 214.2283  2.13102658 56100
COSMOS 2471 (701K)      
1 37372U 11009A   17321.13149654 -.00000067  00000-0  00000+0 0  9993
2 37372  65.4759  59.4672 0008466 225.4414  26.6591  2.13107703 52302
COSMOS 2474 (742)       
1 37829U 11055A   17320.48024819  .00000082  00000-0  00000+0 0  9999
2 37829  64.5035 178.9993 0006902 244.3355 195.9552  2.13101906 47665
COSMOS 2476 (744)       
1 37867U 11064A   17320.73375575  .00000082  00000-0  00000+0 0  9997
2 37867  64.4844 179.0584 0016499 240.4344  80.3161  2.13101977 47019
COSMOS 2477 (745)       
1 37868U 11064B   17321.41051753  .00000081  00000-0  00000+0 0  9992
2 37868  64.4914 179.0825 0014257 241.5085  57.4838  2.13101854 46985
COSMOS 2475 (743)       
1 37869U 11064C   17320.53178534  .00000082  00000-0  00000-0 0  9994
2 37869  64.4992 179.1044 0018666 270.2199  31.1947  2.13102187 46978
COSMOS 2485 (747)       
1 39155U 13019A   17320.80548162  .00000082  00000-0  00000+0 0  9993
2 39155  64.6525 179.1190 0016925 234.8623 185.8950  2.13102016 35495
COSMOS 2492 (754)       
1 39620U 14012A   17320.67644448 -.00000070  00000-0  10000-3 0  9996
2 39620  65.3692  59.4498 0013074 329.6873  26.5130  2.13103379 28438
COSMOS 2500 (755)       
1 40001U 14032A   17320.72532841 -.00000069  00000-0  00000+0 0  9995
2 40001  65.3086  59.4347 0007043 196.9308  59.5021  2.13102719 26654
COSMOS 2501 (702K)      
1 40315U 14075A   17321.41083748 -.00000045  00000-0  00000+0 0  9998
2 40315  64.3323 299.9669 0016622 213.5254  12.9325  2.13098547 23078
COSMOS 2514 (751)       
1 41330U 16008A   17320.76798554 -.00000069  00000-0  00000+0 0  9995
2 41330  65.1104  59.5399 0010098 209.0660 260.4680  2.13103308 13822
COSMOS 2516 (753)       
1 41554U 16032A   17320.59859674 -.00000044  00000-0  00000-0 0  9996
2 41554  64.5527 299.8022 0014201 227.1771   4.2674  2.13101690 11421
COSMOS 2522 (752)       
1 42939U 17055A   17320.73773060 -.00000044  00000-0  00000+0 0  9999
2 42939  64.7829 299.7016 0010180 251.3244 313.2208  2.13101901  1187
